NORAD_CAT_ID,OBJECT_NAME,OBJECT_TYPE,EPOCH,MEAN_MOTION,ECCENTRICITY,INCLINATION,RA_OF_ASC_NODE,ARG_OF_PERICENTER,MEAN_ANOMALY,BSTAR,MEAN_MOTION_DOT,MEAN_MOTION_DDOT,TLE_LINE0,TLE_LINE1,TLE_LINE2,SEMIMAJOR_AXIS,PERIOD,APOGEE,PERIGEE,DECAYED
53540.0,STARLINK-4486,PAYLOAD,2022-11-27 14:51:21,15.08833347,0.0001729,53.2171,42.4649,47.1304,312.9833,-6.786800000000001e-05,-1.368e-05,0.0,0 STARLINK-4486,1 53540U 22101P   22331.61899378 -.00001368  00000-0 -67868-4 0  9994,2 53540  53.2171  42.4649 0001729  47.1304 312.9833 15.08833347 15439,6917.901,95.438,540.962,538.57,0.0
53540.0,STARLINK-4486,PAYLOAD,2022-11-28 05:09:50,15.08825285,0.0001730999999999,53.2167,39.7883,46.4153,313.6982,-0.00015682,-2.782e-05,0.0,0 STARLINK-4486,1 53540U 22101P   22332.21516542 -.00002782  00000-0 -15682-3 0  9997,2 53540  53.2167  39.7883 0001731  46.4153 313.6982 15.08825285 15525,6917.925,95.438,540.988,538.5930000000002,0.0
53540.0,STARLINK-4486,PAYLOAD,2022-11-28 09:55:59,15.08830113,0.0001727,53.2166,38.896,48.084,312.0299,-0.00010653,-1.983e-05,0.0,0 STARLINK-4486,1 53540U 22101P   22332.41388160 -.00001983  00000-0 -10653-3 0  9997,2 53540  53.2166  38.8960 0001727  48.0840 312.0299 15.08830113 15559,6917.911,95.438,540.97,538.581,0.0
53540.0,STARLINK-4486,PAYLOAD,2022-11-29 03:25:13,15.08839122,0.0001545,53.2169,35.624,50.6652,309.4477,1.2165999999999997e-05,-9.4e-07,0.0,0 STARLINK-4486,1 53540U 22101P   22333.14251338 -.00000094  00000-0  12166-4 0  9997,2 53540  53.2169  35.6240 0001545  50.6652 309.4477 15.08839122 15665,6917.8830000000025,95.438,540.817,538.679,0.0
53540.0,STARLINK-4486,PAYLOAD,2022-11-29 12:57:31,15.0883526,0.0001730999999999,53.2169,33.8409,45.5701,314.5432,9.4259e-05,1.212e-05,0.0,0 STARLINK-4486,1 53540U 22101P   22333.53995338  .00001212  00000-0  94259-4 0  9990,2 53540  53.2169  33.8409 0001731  45.5701 314.5432 15.08835260 16418,6917.895,95.438,540.957,538.562,0.0
53540.0,STARLINK-4486,PAYLOAD,2022-11-30 03:16:01,15.08825044,0.000239,53.2184,31.1688,45.9921,314.1268,4.747100000000002e-05,4.67e-06,0.0,0 STARLINK-4486,1 53540U 22101P   22334.13612734  .00000467  00000-0  47471-4 0  9998,2 53540  53.2184  31.1688 0002390  45.9921 314.1268 15.08825044 15810,6917.926,95.439,541.444,538.138,0.0
53540.0,STARLINK-4486,PAYLOAD,2022-11-30 04:51:25,15.08821827,0.0001738,53.2182,30.8672,55.014,305.1015,-4.0132e-05,-9.26e-06,0.0,0 STARLINK-4486,1 53540U 22101P   22334.20237320 -.00000926  00000-0 -40132-4 0  9999,2 53540  53.2182  30.8672 0001738  55.0140 305.1015 15.08821827 16510,6917.936,95.439,541.003,538.599,0.0
53540.0,STARLINK-4486,PAYLOAD,2022-11-30 09:37:34,15.0881884,0.0001727,53.2179,29.9758,51.8519,308.2629,-5.3343e-05,-1.136e-05,0.0,0 STARLINK-4486,1 53540U 22101P   22334.40109775 -.00001136  00000-0 -53343-4 0  9995,2 53540  53.2179  29.9758 0001727  51.8519 308.2629 15.08818840 15854,6917.945,95.439,541.005,538.615,0.0
53540.0,STARLINK-4486,PAYLOAD,2022-12-01 03:06:48,15.08839831,0.0002011,53.2169,26.70300000000001,61.9079,298.2116,-0.00010066,-1.89e-05,0.0,0 STARLINK-4486,1 53540U 22101P   22335.12973325 -.00001890  00000-0 -10066-3 0  9996,2 53540  53.2169  26.7030 0002011  61.9079 298.2116 15.08839831 15965,6917.880999999999,95.438,541.137,538.355,0.0
53540.0,STARLINK-4486,PAYLOAD,2022-12-01 20:36:02,15.08841969,0.0001905,53.2175,23.433000000000003,45.5912,314.5235,0.00014288,1.987e-05,0.0,0 STARLINK-4486,1 53540U 22101P   22335.85836218  .00001987  00000-0  14288-3 0  9990,2 53540  53.2175  23.4330 0001905  45.5912 314.5235 15.08841969 16076,6917.874,95.437,541.057,538.422,0.0
53540.0,STARLINK-4486,PAYLOAD,2022-12-02 09:19:07,15.08837244,0.0001899,53.2175,21.0539,45.6649,314.4498,0.00013772,1.904e-05,0.0,0 STARLINK-4486,1 53540U 22101P   22336.38828538  .00001904  00000-0  13772-3 0  9991,2 53540  53.2175  21.0539 0001899  45.6649 314.4498 15.08837244 16847,6917.889,95.438,541.068,538.44,0.0
53540.0,STARLINK-4486,PAYLOAD,2022-12-03 12:20:41,15.08838526,0.0001884,53.2183,15.9988,46.6071,313.5078,-7.1784e-05,-1.4300000000000004e-05,0.0,0 STARLINK-4486,1 53540U 22101P   22337.51437099 -.00001430  00000-0 -71784-4 0  9999,2 53540  53.2183  15.9988 0001884  46.6071 313.5078 15.08838526 17018,6917.885,95.438,541.053,538.447,0.0
53540.0,STARLINK-4486,PAYLOAD,2022-12-03 13:56:04,15.08838383,0.0001814,53.2172,15.701,42.88,317.2334,-8.683700000000001e-05,-1.67e-05,0.0,0 STARLINK-4486,1 53540U 22101P   22337.58061110 -.00001670  00000-0 -86837-4 0  9994,2 53540  53.2172  15.7010 0001814  42.8800 317.2334 15.08838383 16332,6917.885,95.438,541.005,538.495,0.0
53540.0,STARLINK-4486,PAYLOAD,2022-12-04 07:25:18,15.08846135,0.0001902,53.2172,12.4306,40.3282,319.7851,-0.00012748,-2.317e-05,0.0,0 STARLINK-4486,1 53540U 22101P   22338.30924577 -.00002317  00000-0 -12748-3 0  9998,2 53540  53.2172  12.4306 0001902  40.3282 319.7851 15.08846135 16446,6917.861999999999,95.437,541.0419999999998,538.411,0.0
53540.0,STARLINK-4486,PAYLOAD,2022-12-04 12:11:28,15.0883785,0.000209,53.2169,11.5387,47.5321,312.5847,-6.7307e-05,-1.359e-05,0.0,0 STARLINK-4486,1 53540U 22101P   22338.50796944 -.00001359  00000-0 -67307-4 0  9992,2 53540  53.2169  11.5387 0002090  47.5321 312.5847 15.08837850 17163,6917.887,95.438,541.198,538.306,0.0
53540.0,STARLINK-4486,PAYLOAD,2022-12-05 08:51:29,15.08835376,0.0001921,53.2168,7.6726,39.4058,320.7074,3.2557e-05,2.3e-06,0.0,0 STARLINK-4486,1 53540U 22101P   22339.36908610  .00000230  00000-0  32557-4 0  9996,2 53540  53.2168   7.6726 0001921  39.4058 320.7074 15.08835376 16606,6917.895,95.438,541.0880000000002,538.431,0.0
53540.0,STARLINK-4486,PAYLOAD,2022-12-05 13:37:38,15.0883818,0.0001934,53.2166,6.7804,40.6468,319.4669,6.011e-05,6.69e-06,0.0,0 STARLINK-4486,1 53540U 22101P   22339.56780375  .00000669  00000-0  60110-4 0  9996,2 53540  53.2166   6.7804 0001934  40.6468 319.4669 15.08838180 17325,6917.886,95.438,541.089,538.413,0.0
53540.0,STARLINK-4486,PAYLOAD,2022-12-06 02:20:42,15.08844625,0.0001888,53.2168,4.401,39.88,320.2331,6.8834e-05,8.08e-06,0.0,0 STARLINK-4486,1 53540U 22101P   22340.09771823  .00000808  00000-0  68834-4 0  9990,2 53540  53.2168   4.4010 0001888  39.8800 320.2331 15.08844625 16718,6917.866,95.437,541.0369999999998,538.425,0.0
53540.0,STARLINK-4486,PAYLOAD,2022-12-06 10:17:39,15.08830676,0.0001954,53.2163,2.9133,37.7714,322.3415,-3.2291999999999995e-05,-8.02e-06,0.0,0 STARLINK-4486,1 53540U 22101P   22340.42892979 -.00000802  00000-0 -32292-4 0  9998,2 53540  53.2163   2.9133 0001954  37.7714 322.3415 15.08830676 16769,6917.909000000002,95.438,541.126,538.422,0.0
53540.0,STARLINK-4486,PAYLOAD,2022-12-06 18:14:35,15.08833591,0.0001934,53.2158,1.4269999999999998,38.6573,321.4557,-1.7876e-05,-5.73e-06,0.0,0 STARLINK-4486,1 53540U 22101P   22340.76012848 -.00000573  00000-0 -17876-4 0  9990,2 53540  53.2158   1.4270 0001934  38.6573 321.4557 15.08833591 17509,6917.9,95.438,541.1030000000002,538.427,0.0
53540.0,STARLINK-4486,PAYLOAD,2022-12-07 11:43:50,15.08829557,0.0001921,53.217,358.1564,42.9654,317.1488,-3.3081e-05,-8.14e-06,0.0,0 STARLINK-4486,1 53540U 22101P   22341.48877419 -.00000814  00000-0 -33081-4 0  9997,2 53540  53.2170 358.1564 0001921  42.9654 317.1488 15.08829557 16922,6917.9119999999975,95.438,541.106,538.448,0.0
53540.0,STARLINK-4486,PAYLOAD,2022-12-07 18:05:21,15.08841017,0.000161,53.2167,356.9673,34.5478,325.5618,-2.538e-05,-6.92e-06,0.0,0 STARLINK-4486,1 53540U 22101P   22341.75372561 -.00000692  00000-0 -25380-4 0  9992,2 53540  53.2167 356.9673 0001610  34.5478 325.5618 15.08841017 17655,6917.877,95.437,540.856,538.629,0.0
53540.0,STARLINK-4486,PAYLOAD,2022-12-08 02:02:16,15.08849767,0.000192,53.2172,355.4812,41.8813,318.2326,5.991800000000001e-05,6.66e-06,0.0,0 STARLINK-4486,1 53540U 22101P   22342.08491772  .00000666  00000-0  59918-4 0  9998,2 53540  53.2172 355.4812 0001920  41.8813 318.2326 15.08849767 17013,6917.851,95.437,541.044,538.387,0.0
53540.0,STARLINK-4486,PAYLOAD,2022-12-08 11:34:35,15.08848829,0.0001987,53.2176,353.6981,24.6577,335.451,0.00010815,1.434e-05,0.0,0 STARLINK-4486,1 53540U 22101P   22342.48235461  .00001434  00000-0  10815-3 0  9999,2 53540  53.2176 353.6981 0001987  24.6577 335.4510 15.08848829 17769,6917.853,95.437,541.0930000000002,538.344,0.0
53540.0,STARLINK-4486,PAYLOAD,2022-12-08 17:56:08,15.08842128,0.000187,53.2171,352.5079,41.5974,318.516,0.00013462,1.855e-05,0.0,0 STARLINK-4486,1 53540U 22101P   22342.74731734  .00001855  00000-0  13462-3 0  9990,2 53540  53.2171 352.5079 0001870  41.5974 318.5160 15.08842128 17118,6917.874,95.437,541.033,538.445,0.0
53540.0,STARLINK-4486,PAYLOAD,2022-12-09 09:49:59,15.08837574,0.0001942,53.2172,349.5351,41.131,318.9828,8.264e-05,1.027e-05,0.0,0 STARLINK-4486,1 53540U 22101P   22343.40972154  .00001027  00000-0  82640-4 0  9993,2 53540  53.2172 349.5351 0001942  41.1310 318.9828 15.08837574 17909,6917.888000000001,95.438,541.096,538.409,0.0
53540.0,STARLINK-4486,PAYLOAD,2022-12-09 17:46:58,15.08810522,0.0001985,53.217,348.0463,36.3691,323.7436,-0.00017471,-3.065e-05,0.0,0 STARLINK-4486,1 53540U 22101P   22343.74094951 -.00003065  00000-0 -17471-3 0  9995,2 53540  53.2170 348.0463 0001985  36.3691 323.7436 15.08810522 17262,6917.97,95.439,541.2090000000002,538.462,0.0
53540.0,STARLINK-4486,PAYLOAD,2022-12-10 08:05:25,15.08833814,0.0001675999999999,53.2177,345.3712,41.3449,318.767,-0.00013374,-2.416e-05,0.0,0 STARLINK-4486,1 53540U 22101P   22344.33710102 -.00002416  00000-0 -13374-3 0  9991,2 53540  53.2177 345.3712 0001676  41.3449 318.7670 15.08833814 17353,6917.899,95.438,540.924,538.605,0.0
53540.0,STARLINK-4486,PAYLOAD,2022-12-10 23:59:15,15.08843899,0.0001872,53.2171,342.3957,38.1292,321.9832,-5.984199999999999e-06,-3.83e-06,0.0,0 STARLINK-4486,1 53540U 22101P   22344.99949074 -.00000383  00000-0 -59842-5 0  9998,2 53540  53.2171 342.3957 0001872  38.1292 321.9832 15.08843899 17454,6917.868,95.437,541.028,538.438,0.0
